0 IRIDIUM 16
1 24841U 97030F   13282.39687179  .00000251  00000-0  79863-4 0  5074
2 24841 086.4100 193.7298 0002515 057.6928 078.5882 14.35916974854250
0 IRIDIUM 16
1 24841U 97030F   13282.39687179  .00000251  00000-0  79863-4 0  5085
2 24841 086.4100 193.7298 0002515 057.6928 078.5882 14.35916974854250
0 IRIDIUM 16
1 24841U 97030F   13283.37280197  .00000264  00000-0  84336-4 0  5099
2 24841 086.4100 193.3222 0002425 056.7534 081.2092 14.35917655854392
0 IRIDIUM 16
1 24841U 97030F   13284.34859279  .00000296  00000-0  95380-4 0  5108
2 24841 086.4099 192.9148 0002345 055.5402 083.3871 14.35918158854536
0 IRIDIUM 16
1 24841U 97030F   13285.18634883  .00000283  00000-0  90797-4 0  5117
2 24841 086.4100 192.5650 0002264 054.6592 092.1429 14.35918487854658
0 IRIDIUM 16
1 24841U 97030F   13286.36778468  .00000303  00000-0  97750-4 0  5126
2 24841 086.4099 192.0717 0002155 053.1454 076.9946 14.35919022854823
0 IRIDIUM 16
1 24841U 97030F   13287.34500949  .00000341  00000-0  11073-3 0  5138
2 24841 086.4099 191.6638 0002068 051.9390 086.5790 14.35919536854967
0 IRIDIUM 16
1 24841U 97030F   13288.25467097  .00000444  00000-0  14650-3 0  5144
2 24841 086.4098 191.2841 0001988 050.9353 106.9280 14.35920585855098
0 IRIDIUM 16
1 24841U 97030F   13289.36554630  .00000358  00000-0  11685-3 0  5157
2 24841 086.4096 190.8204 0001868 049.8273 086.8646 14.35921984855253
0 IRIDIUM 16
1 24841U 97030F   13289.36554630  .00000358  00000-0  11685-3 0  5168
2 24841 086.4096 190.8204 0001868 049.8273 086.8646 14.35921984855253
0 IRIDIUM 16
1 24841U 97030F   13290.34142115  .00000398  00000-0  13038-3 0  5178
2 24841 086.4095 190.4131 0001776 048.8911 089.2145 14.35922680855393
0 IRIDIUM 16
1 24841U 97030F   13291.31731059  .00000397  00000-0  13003-3 0  5189
2 24841 086.4094 190.0056 0001683 047.9505 091.6471 14.35923479855532
0 IRIDIUM 16
1 24841U 97030F   13292.36195141  .00000406  00000-0  13322-3 0  5197
2 24841 086.4093 189.5695 0001578 046.9824 089.2838 14.35924266855680
0 IRIDIUM 16
1 24841U 97030F   13293.33607406  .00000430  00000-0  14139-3 0  5203
2 24841 086.4091 189.1628 0001478 046.6845 081.9524 14.35925246855825
0 IRIDIUM 16
1 24841U 97030F   13294.31363772  .00000415  00000-0  13629-3 0  5214
2 24841 086.4091 188.7546 0001383 045.7976 092.9889 14.35926298855968
0 IRIDIUM 16
1 24841U 97030F   13295.28934855  .00000433  00000-0  14251-3 0  5220
2 24841 086.4090 188.3471 0001287 045.2176 094.1502 14.35927126856104
